NORAD_CAT_ID,OBJECT_NAME,OBJECT_TYPE,EPOCH,MEAN_MOTION,ECCENTRICITY,INCLINATION,RA_OF_ASC_NODE,ARG_OF_PERICENTER,MEAN_ANOMALY,BSTAR,MEAN_MOTION_DOT,MEAN_MOTION_DDOT,TLE_LINE0,TLE_LINE1,TLE_LINE2,SEMIMAJOR_AXIS,PERIOD,APOGEE,PERIGEE,DECAYED
51721.0,STARLINK-3524,PAYLOAD,2023-03-23 11:57:23,15.0884937,0.0001493,53.2165,147.2639,82.7189,277.3973,0.00019192,2.769e-05,0.0,0 STARLINK-3524,1 51721U 22016H   23082.49819197  .00002769  00000-0  19192-3 0  9999,2 51721  53.2165 147.2639 0001493  82.7189 277.3973 15.08849370 60058,6917.852,95.437,540.75,538.684,0.0
51721.0,STARLINK-3524,PAYLOAD,2023-03-24 03:51:14,15.08860965,0.0001519,53.216,144.2923,79.1296,280.9867,0.00051537,7.928e-05,0.0,0 STARLINK-3524,1 51721U 22016H   23083.16058892  .00007928  00000-0  51537-3 0  9992,2 51721  53.2160 144.2923 0001519  79.1296 280.9867 15.08860965 61274,6917.816,95.436,540.732,538.63,0.0
51721.0,STARLINK-3524,PAYLOAD,2023-03-24 10:12:46,15.08874757,0.0001631,53.2154,143.1051,55.5818,304.5328,0.00072364,0.00011258,0.0,0 STARLINK-3524,1 51721U 22016H   23083.42554191  .00011258  00000-0  72364-3 0  9996,2 51721  53.2154 143.1051 0001631  55.5818 304.5328 15.08874757 60199,6917.774,95.435,540.767,538.511,0.0
51721.0,STARLINK-3524,PAYLOAD,2023-03-24 21:20:29,15.08852105,0.0002297,53.2158,141.0247,54.7313,305.3894,0.00018397,2.642e-05,0.0,0 STARLINK-3524,1 51721U 22016H   23083.88922724  .00002642  00000-0  18397-3 0  9990,2 51721  53.2158 141.0247 0002297  54.7313 305.3894 15.08852105 60265,6917.843,95.437,541.297,538.119,0.0
51721.0,STARLINK-3524,PAYLOAD,2023-03-25 03:42:02,15.08821557,0.0001694,53.2156,139.8343,58.5857,301.53,-0.00043881,-7.261e-05,0.0,0 STARLINK-3524,1 51721U 22016H   23084.15419653 -.00007261  00000-0 -43881-3 0  9993,2 51721  53.2156 139.8343 0001694  58.5857 301.5300 15.08821557 61426,6917.937,95.439,540.974,538.63,0.0
51721.0,STARLINK-3524,PAYLOAD,2023-03-25 10:03:35,15.08821978,0.0001661,53.2151,138.6432,65.0684,295.0481,-0.00034527,-5.776e-05,0.0,0 STARLINK-3524,1 51721U 22016H   23084.41915887 -.00005776  00000-0 -34527-3 0  9998,2 51721  53.2151 138.6432 0001661  65.0684 295.0481 15.08821978 60346,6917.935,95.439,540.95,538.651,0.0
51721.0,STARLINK-3524,PAYLOAD,2023-03-26 03:32:49,15.08834408,0.0001685,53.216,135.3651,123.6077,236.5076,-0.00015234,-2.711e-05,0.0,0 STARLINK-3524,1 51721U 22016H   23085.14779631 -.00002711  00000-0 -15234-3 0  9994,2 51721  53.2160 135.3651 0001685 123.6077 236.5076 15.08834408 61574,6917.897,95.438,540.928,538.597,0.0
51721.0,STARLINK-3524,PAYLOAD,2023-03-26 09:54:22,15.0883818,0.0001369,53.2152,134.1788,85.9803,274.1345,0.00037895,5.748e-05,0.0,0 STARLINK-3524,1 51721U 22016H   23085.41276043  .00005748  00000-0  37895-3 0  9991,2 51721  53.2152 134.1788 0001369  85.9803 274.1345 15.08838180 60497,6917.886,95.438,540.698,538.804,0.0
51721.0,STARLINK-3524,PAYLOAD,2023-03-27 09:45:09,15.08846799,0.0001365,53.2159,129.7189,88.3866,271.7282,0.0004267,6.511e-05,0.0,0 STARLINK-3524,1 51721U 22016H   23086.40636247  .00006511  00000-0  42670-3 0  9993,2 51721  53.2159 129.7189 0001365  88.3866 271.7282 15.08846799 61760,6917.86,95.437,540.669,538.78,0.0
51721.0,STARLINK-3524,PAYLOAD,2023-03-27 19:17:28,15.0884281,0.0001388,53.2157,127.9355,86.0907,274.0244,0.00020627,2.997e-05,0.0,0 STARLINK-3524,1 51721U 22016H   23086.80380323  .00002997  00000-0  20627-3 0  9990,2 51721  53.2157 127.9355 0001388  86.0907 274.0244 15.08842810 60706,6917.872,95.437,540.697,538.777,0.0
51721.0,STARLINK-3524,PAYLOAD,2023-03-28 06:25:10,15.08842236,0.0001387,53.2159,125.8531,94.16,265.9551,0.00011378,1.523e-05,0.0,0 STARLINK-3524,1 51721U 22016H   23087.26748239  .00001523  00000-0  11378-3 0  9992,2 51721  53.2159 125.8531 0001387  94.1600 265.9551 15.08842236 61893,6917.874,95.437,540.698,538.779,0.0
51721.0,STARLINK-3524,PAYLOAD,2023-03-28 09:35:56,15.08843278,0.0001384,53.216,125.2586,94.2676,265.8474,0.00012365,1.681e-05,0.0,0 STARLINK-3524,1 51721U 22016H   23087.39996187  .00001681  00000-0  12365-3 0  9995,2 51721  53.2160 125.2586 0001384  94.2676 265.8474 15.08843278 60798,6917.87,95.437,540.693,538.778,0.0
51721.0,STARLINK-3524,PAYLOAD,2023-03-28 19:08:15,15.08842396,0.0001357,53.2159,123.4744,96.2558,263.8589,0.00010937,1.453e-05,0.0,0 STARLINK-3524,1 51721U 22016H   23087.79740191  .00001453  00000-0  10937-3 0  9991,2 51721  53.2159 123.4744 0001357  96.2558 263.8589 15.08842396 60855,6917.873,95.437,540.677,538.799,0.0
51721.0,STARLINK-3524,PAYLOAD,2023-03-29 07:51:20,15.08846153,0.0001413,53.2162,121.0957,103.041,257.074,0.00010747,1.423e-05,0.0,0 STARLINK-3524,1 51721U 22016H   23088.32731915  .00001423  00000-0  10747-3 0  9991,2 51721  53.2162 121.0957 0001413 103.0410 257.0740 15.08846153 62059,6917.862,95.437,540.704,538.749,0.0
51721.0,STARLINK-3524,PAYLOAD,2023-03-29 09:26:43,15.08846503,0.000138,53.216,120.7982,101.3883,258.7264,0.00013773,1.905e-05,0.0,0 STARLINK-3524,1 51721U 22016H   23088.39355892  .00001905  00000-0  13773-3 0  9991,2 51721  53.2160 120.7982 0001380 101.3883 258.7264 15.08846503 60943,6917.861,95.437,540.68,538.771,0.0
51721.0,STARLINK-3524,PAYLOAD,2023-03-30 01:20:35,15.08840707,0.0001316,53.2161,117.8246,104.6008,255.5131,6.412e-05,7.33e-06,0.0,0 STARLINK-3524,1 51721U 22016H   23089.05596115  .00000733  00000-0  64120-4 0  9991,2 51721  53.2161 117.8246 0001316 104.6008 255.5131 15.08840707 62162,6917.878,95.438,540.654,538.833,0.0
51721.0,STARLINK-3524,PAYLOAD,2023-03-30 09:17:31,15.08840519,0.0001273,53.2166,116.3374,102.142,257.9714,6.381e-05,7.28e-06,0.0,0 STARLINK-3524,1 51721U 22016H   23089.38716503  .00000728  00000-0  63810-4 0  9991,2 51721  53.2166 116.3374 0001273 102.1420 257.9714 15.08840519 61091,6917.879,95.438,540.624,538.863,0.0
51721.0,STARLINK-3524,PAYLOAD,2023-03-31 02:46:45,15.08839344,0.0001327,53.2164,113.066,98.0385,262.0758,1.4449e-05,-5.8e-07,0.0,0 STARLINK-3524,1 51721U 22016H   23090.11580784 -.00000058  00000-0  14449-4 0  9995,2 51721  53.2164 113.0660 0001327  98.0385 262.0758 15.08839344 62320,6917.882,95.438,540.665,538.829,0.0
51721.0,STARLINK-3524,PAYLOAD,2023-03-31 18:40:35,15.08876831,0.0001224,53.217,110.0933,70.1674,289.945,-0.00048128,-7.947e-05,0.0,0 STARLINK-3524,1 51721U 22016H   23090.77819282 -.00007947  00000-0 -48128-3 0  9990,2 51721  53.2170 110.0933 0001224  70.1674 289.9450 15.08876831 62425,6917.768,95.435,540.48,538.786,0.0
51721.0,STARLINK-3524,PAYLOAD,2023-04-01 01:02:09,15.08835811,0.0001639,53.2174,108.9047,73.6911,286.4261,8.6553e-05,1.09e-05,0.0,0 STARLINK-3524,1 51721U 22016H   23091.04317064  .00001090  00000-0  86553-4 0  9998,2 51721  53.2174 108.9047 0001639  73.6911 286.4261 15.08835811 62462,6917.893,95.438,540.892,538.624,0.0
51721.0,STARLINK-3524,PAYLOAD,2023-04-01 07:23:42,15.08835304,0.0001614,53.2172,107.7148,75.8424,284.2747,7.3976e-05,8.89e-06,0.0,0 STARLINK-3524,1 51721U 22016H   23091.30813216  .00000889  00000-0  73976-4 0  9997,2 51721  53.2172 107.7148 0001614  75.8424 284.2747 15.08835304 61387,6917.895,95.438,540.876,538.643,0.0
51721.0,STARLINK-3524,PAYLOAD,2023-04-01 18:31:24,15.08840807,0.0001653,53.2176,105.6334,76.5696,283.548,0.00011073,1.475e-05,0.0,0 STARLINK-3524,1 51721U 22016H   23091.77180839  .00001475  00000-0  11073-3 0  9997,2 51721  53.2176 105.6334 0001653  76.5696 283.5480 15.08840807 61455,6917.878,95.438,540.886,538.599,0.0
51721.0,STARLINK-3524,PAYLOAD,2023-04-02 07:14:28,15.08847389,0.0001596,53.2173,103.2536,79.773,280.3442,0.00011838,1.597e-05,0.0,0 STARLINK-3524,1 51721U 22016H   23092.30172337  .00001597  00000-0  11838-3 0  9995,2 51721  53.2173 103.2536 0001596  79.7730 280.3442 15.08847389 62658,6917.858,95.437,540.827,538.619,0.0
51721.0,STARLINK-3524,PAYLOAD,2023-04-02 10:25:14,15.08849408,0.0001563,53.2169,102.658,82.788,277.329,0.00013074,1.794e-05,0.0,0 STARLINK-3524,1 51721U 22016H   23092.43420105  .00001794  00000-0  13074-3 0  9991,2 51721  53.2169 102.6580 0001563  82.7880 277.3290 15.08849408 61558,6917.852,95.437,540.798,538.635,0.0
51721.0,STARLINK-3524,PAYLOAD,2023-04-03 05:30:20,15.0851749,0.0001344,53.217,99.0912,100.6755,259.4388,-0.0025187,-0.000398,0.0,0 STARLINK-3524,1 51721U 22016H   23093.22940239 -.00039800  00000-0 -25187-2 0  9992,2 51721  53.2170  99.0912 0001344 100.6755 259.4388 15.08517490 62795,6918.866,95.458,541.661,539.801,0.0
51721.0,STARLINK-3524,PAYLOAD,2023-04-03 11:52:06,15.08396686,0.0001633,53.217,97.9018,107.5294,252.5877,-0.0034114,-0.00053527,0.0,0 STARLINK-3524,1 51721U 22016H   23093.49451583 -.00053527  00000-0 -34114-2 0  9992,2 51721  53.2170  97.9018 0001633 107.5294 252.5877 15.08396686 62838,6919.236,95.466,542.231,539.971,0.0
51721.0,STARLINK-3524,PAYLOAD,2023-04-03 13:27:32,15.0836983,0.0001561,53.217,97.605,61.845,298.2699,-0.0035932,-0.00056301,0.0,0 STARLINK-3524,1 51721U 22016H   23093.56079401 -.00056301  00000-0 -35932-2 0  9997,2 51721  53.2170  97.6050 0001561  61.8450 298.2699 15.08369830 61724,6919.318,95.467,542.263,540.103,0.0
51721.0,STARLINK-3524,PAYLOAD,2023-04-03 15:02:57,15.08365921,0.0001375,53.2173,97.3077,93.8611,266.2538,-0.0035844,-0.00056158,0.0,0 STARLINK-3524,1 51721U 22016H   23093.62705074 -.00056158  00000-0 -35844-2 0  9998,2 51721  53.2173  97.3077 0001375  93.8611 266.2538 15.08365921 62859,6919.33,95.468,542.146,540.243,0.0
51721.0,STARLINK-3524,PAYLOAD,2023-04-04 06:57:07,15.08307224,0.0001405,53.2168,94.3366,87.2806,272.8346,-0.003511,-0.00054936,0.0,0 STARLINK-3524,1 51721U 22016H   23094.28967568 -.00054936  00000-0 -35110-2 0  9997,2 51721  53.2168  94.3366 0001405  87.2806 272.8346 15.08307224 61837,6919.509,95.471,542.347,540.402,0.0
51721.0,STARLINK-3524,PAYLOAD,2023-04-05 05:12:29,15.0855779,0.000137,53.2175,90.1732,81.3846,278.7301,0.0023765,0.00037444,0.0,0 STARLINK-3524,1 51721U 22016H   23095.21701271  .00037444  00000-0  23765-2 0  9994,2 51721  53.2175  90.1732 0001370  81.3846 278.7301 15.08557790 63097,6918.743,95.455,541.556,539.66,0.0
